CCSDS_OMM_VERS = 2.0
CREATION_DATE  = 
ORIGINATOR     = 

OBJECT_NAME    = STARLINK-36154
OBJECT_ID      = 2025-286Q
CENTER_NAME    = EARTH
REF_FRAME      = TEME
TIME_SYSTEM    = UTC
MEAN_ELEMENT_THEORY = SGP/SGP4

EPOCH          = 2026-01-04T23:11:11.496192
MEAN_MOTION    = 15.39670612
ECCENTRICITY   = .00013134
INCLINATION    = 53.1604
RA_OF_ASC_NODE = 297.0495
ARG_OF_PERICENTER = 136.1480
MEAN_ANOMALY   = 223.9630

EPHEMERIS_TYPE = 0
CLASSIFICATION_TYPE = U
NORAD_CAT_ID   = 66939
ELEMENT_SET_NO = 999
REV_AT_EPOCH   = 562
BSTAR          = .20446912E-2
MEAN_MOTION_DOT = .82412E-3
MEAN_MOTION_DDOT = 0

CCSDS_OMM_VERS = 2.0
CREATION_DATE  = 
ORIGINATOR     = 

OBJECT_NAME    = STARLINK-36121
OBJECT_ID      = 2025-286R
CENTER_NAME    = EARTH
REF_FRAME      = TEME
TIME_SYSTEM    = UTC
MEAN_ELEMENT_THEORY = SGP/SGP4

EPOCH          = 2026-01-04T23:04:30.417888
MEAN_MOTION    = 15.39657092
ECCENTRICITY   = .0001234
INCLINATION    = 53.1602
RA_OF_ASC_NODE = 297.0192
ARG_OF_PERICENTER = 61.7671
MEAN_ANOMALY   = 298.3458

EPHEMERIS_TYPE = 0
CLASSIFICATION_TYPE = U
NORAD_CAT_ID   = 66940
ELEMENT_SET_NO = 999
REV_AT_EPOCH   = 562
BSTAR          = .1586258E-2
MEAN_MOTION_DOT = .63659E-3
MEAN_MOTION_DDOT = 0

CCSDS_OMM_VERS = 2.0
CREATION_DATE  = 
ORIGINATOR     = 

OBJECT_NAME    = STARLINK-36088
OBJECT_ID      = 2025-286S
CENTER_NAME    = EARTH
REF_FRAME      = TEME
TIME_SYSTEM    = UTC
MEAN_ELEMENT_THEORY = SGP/SGP4

EPOCH          = 2026-01-04T23:42:15.467328
MEAN_MOTION    = 15.49359576
ECCENTRICITY   = .00015447
INCLINATION    = 53.1601
RA_OF_ASC_NODE = 296.4671
ARG_OF_PERICENTER = 102.2258
MEAN_ANOMALY   = 257.8924

EPHEMERIS_TYPE = 0
CLASSIFICATION_TYPE = U
NORAD_CAT_ID   = 66941
ELEMENT_SET_NO = 999
REV_AT_EPOCH   = 563
BSTAR          = .21449898E-2
MEAN_MOTION_DOT = .120926E-2
MEAN_MOTION_DDOT = 0

CCSDS_OMM_VERS = 2.0
CREATION_DATE  = 
ORIGINATOR     = 

OBJECT_NAME    = STARLINK-36100
OBJECT_ID      = 2025-286T
CENTER_NAME    = EARTH
REF_FRAME      = TEME
TIME_SYSTEM    = UTC
MEAN_ELEMENT_THEORY = SGP/SGP4

EPOCH          = 2026-01-04T22:00:01.999584
MEAN_MOTION    = 15.39613814
ECCENTRICITY   = .00008321
INCLINATION    = 53.1592
RA_OF_ASC_NODE = 297.1779
ARG_OF_PERICENTER = 97.4074
MEAN_ANOMALY   = 40.1584

EPHEMERIS_TYPE = 0
CLASSIFICATION_TYPE = U
NORAD_CAT_ID   = 66942
ELEMENT_SET_NO = 999
REV_AT_EPOCH   = 564
BSTAR          = .40249633E-3
MEAN_MOTION_DOT = .1573E-3
MEAN_MOTION_DDOT = 0

CCSDS_OMM_VERS = 2.0
CREATION_DATE  = 
ORIGINATOR     = 

OBJECT_NAME    = STARLINK-36109
OBJECT_ID      = 2025-286U
CENTER_NAME    = EARTH
REF_FRAME      = TEME
TIME_SYSTEM    = UTC
MEAN_ELEMENT_THEORY = SGP/SGP4

EPOCH          = 2026-01-04T22:00:01.999584
MEAN_MOTION    = 15.39617695
ECCENTRICITY   = .00015342
INCLINATION    = 53.1597
RA_OF_ASC_NODE = 297.0750
ARG_OF_PERICENTER = 95.3687
MEAN_ANOMALY   = 93.6924

EPHEMERIS_TYPE = 0
CLASSIFICATION_TYPE = U
NORAD_CAT_ID   = 66943
ELEMENT_SET_NO = 999
REV_AT_EPOCH   = 564
BSTAR          = .42423717E-3
MEAN_MOTION_DOT = .16605E-3
MEAN_MOTION_DDOT = 0

CCSDS_OMM_VERS = 2.0
CREATION_DATE  = 
ORIGINATOR     = 

OBJECT_NAME    = STARLINK-36112
OBJECT_ID      = 2025-286V
CENTER_NAME    = EARTH
REF_FRAME      = TEME
TIME_SYSTEM    = UTC
MEAN_ELEMENT_THEORY = SGP/SGP4

EPOCH          = 2026-01-04T22:00:01.999584
MEAN_MOTION    = 15.39599417
ECCENTRICITY   = .00015874
INCLINATION    = 53.1600
RA_OF_ASC_NODE = 296.9710
ARG_OF_PERICENTER = 96.0711
MEAN_ANOMALY   = 144.5297

EPHEMERIS_TYPE = 0
CLASSIFICATION_TYPE = U
NORAD_CAT_ID   = 66944
ELEMENT_SET_NO = 999
REV_AT_EPOCH   = 571
BSTAR          = .56904569E-3
MEAN_MOTION_DOT = .22413E-3
MEAN_MOTION_DDOT = 0

CCSDS_OMM_VERS = 2.0
CREATION_DATE  = 
ORIGINATOR     = 

OBJECT_NAME    = STARLINK-36110
OBJECT_ID      = 2025-286W
CENTER_NAME    = EARTH
REF_FRAME      = TEME
TIME_SYSTEM    = UTC
MEAN_ELEMENT_THEORY = SGP/SGP4

EPOCH          = 2026-01-04T22:00:01.999584
MEAN_MOTION    = 15.39622582
ECCENTRICITY   = .00013351
INCLINATION    = 53.1600
RA_OF_ASC_NODE = 297.0221
ARG_OF_PERICENTER = 95.8374
MEAN_ANOMALY   = 118.9743

EPHEMERIS_TYPE = 0
CLASSIFICATION_TYPE = U
NORAD_CAT_ID   = 66945
ELEMENT_SET_NO = 999
REV_AT_EPOCH   = 571
BSTAR          = .42769953E-3
MEAN_MOTION_DOT = .16747E-3
MEAN_MOTION_DDOT = 0

CCSDS_OMM_VERS = 2.0
CREATION_DATE  = 
ORIGINATOR     = 

OBJECT_NAME    = STARLINK-36115
OBJECT_ID      = 2025-286X
CENTER_NAME    = EARTH
REF_FRAME      = TEME
TIME_SYSTEM    = UTC
MEAN_ELEMENT_THEORY = SGP/SGP4

EPOCH          = 2026-01-04T22:00:01.999584
MEAN_MOTION    = 15.39567941
ECCENTRICITY   = .00009485
INCLINATION    = 53.1601
RA_OF_ASC_NODE = 296.9204
ARG_OF_PERICENTER = 92.5098
MEAN_ANOMALY   = 173.9150

EPHEMERIS_TYPE = 0
CLASSIFICATION_TYPE = U
NORAD_CAT_ID   = 66946
ELEMENT_SET_NO = 999
REV_AT_EPOCH   = 571
BSTAR          = .94551523E-3
MEAN_MOTION_DOT = .37542E-3
MEAN_MOTION_DDOT = 0

CCSDS_OMM_VERS = 2.0
CREATION_DATE  = 
ORIGINATOR     = 

OBJECT_NAME    = STARLINK-36089
OBJECT_ID      = 2025-286Y
CENTER_NAME    = EARTH
REF_FRAME      = TEME
TIME_SYSTEM    = UTC
MEAN_ELEMENT_THEORY = SGP/SGP4

EPOCH          = 2026-01-04T12:57:16.585920
MEAN_MOTION    = 15.49341555
ECCENTRICITY   = .0001466
INCLINATION    = 53.1601
RA_OF_ASC_NODE = 298.6477
ARG_OF_PERICENTER = 87.4645
MEAN_ANOMALY   = 272.6531

EPHEMERIS_TYPE = 0
CLASSIFICATION_TYPE = U
NORAD_CAT_ID   = 66947
ELEMENT_SET_NO = 999
REV_AT_EPOCH   = 556
BSTAR          = .19987E-2
MEAN_MOTION_DOT = .112451E-2
MEAN_MOTION_DDOT = 0

CCSDS_OMM_VERS = 2.0
CREATION_DATE  = 
ORIGINATOR     = 

OBJECT_NAME    = STARLINK-36116
OBJECT_ID      = 2025-286Z
CENTER_NAME    = EARTH
REF_FRAME      = TEME
TIME_SYSTEM    = UTC
MEAN_ELEMENT_THEORY = SGP/SGP4

EPOCH          = 2026-01-04T22:00:01.999584
MEAN_MOTION    = 15.43253177
ECCENTRICITY   = .00016259
INCLINATION    = 53.1597
RA_OF_ASC_NODE = 296.8794
ARG_OF_PERICENTER = 102.2610
MEAN_ANOMALY   = 184.6657

EPHEMERIS_TYPE = 0
CLASSIFICATION_TYPE = U
NORAD_CAT_ID   = 66948
ELEMENT_SET_NO = 999
REV_AT_EPOCH   = 571
BSTAR          = -.51212448E-1
MEAN_MOTION_DOT = -.2054649E-1
MEAN_MOTION_DDOT = 0

CCSDS_OMM_VERS = 2.0
CREATION_DATE  = 
ORIGINATOR     = 

OBJECT_NAME    = STARLINK-36096
OBJECT_ID      = 2025-286AA
CENTER_NAME    = EARTH
REF_FRAME      = TEME
TIME_SYSTEM    = UTC
MEAN_ELEMENT_THEORY = SGP/SGP4

EPOCH          = 2026-01-04T22:00:01.999584
MEAN_MOTION    = 15.39614353
ECCENTRICITY   = .00012857
INCLINATION    = 53.1592
RA_OF_ASC_NODE = 297.1247
ARG_OF_PERICENTER = 92.8137
MEAN_ANOMALY   = 70.4990

EPHEMERIS_TYPE = 0
CLASSIFICATION_TYPE = U
NORAD_CAT_ID   = 66949
ELEMENT_SET_NO = 999
REV_AT_EPOCH   = 571
BSTAR          = .52922827E-3
MEAN_MOTION_DOT = .20823E-3
MEAN_MOTION_DDOT = 0

CCSDS_OMM_VERS = 2.0
CREATION_DATE  = 
ORIGINATOR     = 

OBJECT_NAME    = STARLINK-36111
OBJECT_ID      = 2025-286AB
CENTER_NAME    = EARTH
REF_FRAME      = TEME
TIME_SYSTEM    = UTC
MEAN_ELEMENT_THEORY = SGP/SGP4

EPOCH          = 2026-01-04T08:00:03.000384
MEAN_MOTION    = 15.49314390
ECCENTRICITY   = .00013886
INCLINATION    = 53.1591
RA_OF_ASC_NODE = 299.6237
ARG_OF_PERICENTER = 78.5962
MEAN_ANOMALY   = 215.4029

EPHEMERIS_TYPE = 0
CLASSIFICATION_TYPE = U
NORAD_CAT_ID   = 66950
ELEMENT_SET_NO = 999
REV_AT_EPOCH   = 562
BSTAR          = -.56502626E-3
MEAN_MOTION_DOT = -.31752E-3
MEAN_MOTION_DDOT = 0

