STARLINK-36154          
1 66939U 25286Q   26004.96610528  .00082412  00000+0  20447-2 0  9990
2 66939  53.1604 297.0495 0001313 136.1480 223.9630 15.39670612  5629
STARLINK-36121          
1 66940U 25286R   26004.96146317  .00063659  00000+0  15863-2 0  9990
2 66940  53.1602 297.0192 0001234  61.7671 298.3458 15.39657092  5621
STARLINK-36088          
1 66941U 25286S   26004.98767902  .00120926  00000+0  21450-2 0  9992
2 66941  53.1601 296.4671 0001544 102.2258 257.8924 15.49359576  5638
STARLINK-36100          
1 66942U 25286T   26004.91668981  .00015730  00000+0  40250-3 0  9999
2 66942  53.1592 297.1779 0000832  97.4074  40.1584 15.39613814  5648
STARLINK-36109          
1 66943U 25286U   26004.91668981  .00016605  00000+0  42424-3 0  9997
2 66943  53.1597 297.0750 0001534  95.3687  93.6924 15.39617695  5641
STARLINK-36112          
1 66944U 25286V   26004.91668981  .00022413  00000+0  56905-3 0  9991
2 66944  53.1600 296.9710 0001587  96.0711 144.5297 15.39599417  5713
STARLINK-36110          
1 66945U 25286W   26004.91668981  .00016747  00000+0  42770-3 0  9990
2 66945  53.1600 297.0221 0001335  95.8374 118.9743 15.39622582  5717
STARLINK-36115          
1 66946U 25286X   26004.91668981  .00037542  00000+0  94552-3 0  9992
2 66946  53.1601 296.9204 0000948  92.5098 173.9150 15.39567941  5714
STARLINK-36089          
1 66947U 25286Y   26004.53977530  .00112451  00000+0  19987-2 0  9995
2 66947  53.1601 298.6477 0001466  87.4645 272.6531 15.49341555  5568
STARLINK-36116          
1 66948U 25286Z   26004.91668981 -.02054649  00000+0 -51212-1 0  9999
2 66948  53.1597 296.8794 0001625 102.2610 184.6657 15.43253177  5714
STARLINK-36096          
1 66949U 25286AA  26004.91668981  .00020823  00000+0  52923-3 0  9995
2 66949  53.1592 297.1247 0001285  92.8137  70.4990 15.39614353  5711
STARLINK-36111          
1 66950U 25286AB  26004.33336806 -.00031752  00000+0 -56503-3 0  9994
2 66950  53.1591 299.6237 0001388  78.5962 215.4029 15.49314390  5622
